NORAD_CAT_ID,OBJECT_NAME,OBJECT_TYPE,EPOCH,MEAN_MOTION,ECCENTRICITY,INCLINATION,RA_OF_ASC_NODE,ARG_OF_PERICENTER,MEAN_ANOMALY,BSTAR,MEAN_MOTION_DOT,MEAN_MOTION_DDOT,TLE_LINE0,TLE_LINE1,TLE_LINE2,SEMIMAJOR_AXIS,PERIOD,APOGEE,PERIGEE,DECAYED
51776.0,STARLINK-3608,PAYLOAD,2023-10-27 14:55:54,15.08835413,0.0001586,53.2168,258.0693,85.4991,274.6182,2.5234e-05,1.14e-06,0.0,0 STARLINK-3608,1 51776U 22017J   23300.62215368  .00000114  00000-0  25234-4 0  9995,2 51776  53.2168 258.0693 0001586  85.4991 274.6182 15.08835413 93619,6917.894,95.438,540.857,538.662,0.0
51776.0,STARLINK-3608,PAYLOAD,2023-10-28 06:49:45,15.08837784,0.00017,53.2175,255.094,91.5852,268.5335,0.0001032,1.355e-05,0.0,0 STARLINK-3608,1 51776U 22017J   23301.28455574  .00001355  00000-0  10320-3 0  9990,2 51776  53.2175 255.0940 0001700  91.5852 268.5335 15.08837784 92222,6917.887,95.438,540.928,538.576,0.0
51776.0,STARLINK-3608,PAYLOAD,2023-10-29 03:29:46,15.08857297,0.0001534,53.217,251.2297,91.1688,268.948,0.00061191,9.469e-05,0.0,0 STARLINK-3608,1 51776U 22017J   23302.14567231  .00009469  00000-0  61191-3 0  9996,2 51776  53.2170 251.2297 0001534  91.1688 268.9480 15.08857297 93843,6917.828,95.436,540.754,538.631,0.0
51776.0,STARLINK-3608,PAYLOAD,2023-10-30 04:55:56,15.08847082,0.0001299,53.218,246.4711,79.0029,281.111,0.00036242,5.486e-05,0.0,0 STARLINK-3608,1 51776U 22017J   23303.20551636  .00005486  00000-0  36242-3 0  9990,2 51776  53.2180 246.4711 0001299  79.0029 281.1110 15.08847082 94000,6917.859,95.437,540.622,538.825,0.0
51776.0,STARLINK-3608,PAYLOAD,2023-10-30 20:49:48,15.08829706,0.0001385,53.2189,243.5014,88.1928,271.9222,-0.00014967,-2.668e-05,0.0,0 STARLINK-3608,1 51776U 22017J   23303.86792049 -.00002668  00000-0 -14967-3 0  9998,2 51776  53.2189 243.5014 0001385  88.1928 271.9222 15.08829706 94103,6917.912,95.438,540.735,538.819,0.0
51776.0,STARLINK-3608,PAYLOAD,2023-10-31 12:43:39,15.08837794,0.0001173,53.2172,240.526,80.667,279.4455,0.00029685,4.439e-05,0.0,0 STARLINK-3608,1 51776U 22017J   23304.53032203  .00004439  00000-0  29685-3 0  9991,2 51776  53.2172 240.5260 0001173  80.6670 279.4455 15.08837794 92713,6917.887,95.438,540.564,538.941,0.0
51776.0,STARLINK-3608,PAYLOAD,2023-11-01 04:37:30,15.08863644,0.0001176,53.2169,237.5525,88.423,271.6897,0.0008754,0.0001368,0.0,0 STARLINK-3608,1 51776U 22017J   23305.19271682  .00013680  00000-0  87540-3 0  9992,2 51776  53.2169 237.5525 0001176  88.4230 271.6897 15.08863644 94304,6917.808,95.436,540.487,538.86,0.0
51776.0,STARLINK-3608,PAYLOAD,2023-11-01 12:34:26,15.0884683,0.0001698,53.2172,236.0657,81.8922,278.2263,0.00030375,4.55e-05,0.0,0 STARLINK-3608,1 51776U 22017J   23305.52392102  .00004550  00000-0  30375-3 0  9990,2 51776  53.2172 236.0657 0001698  81.8922 278.2263 15.08846830 94355,6917.86,95.437,540.899,538.55,0.0
51776.0,STARLINK-3608,PAYLOAD,2023-11-02 12:25:13,15.08848542,0.0001722,53.2155,231.6079,90.6964,269.4225,0.00034672,5.236e-05,0.0,0 STARLINK-3608,1 51776U 22017J   23306.51752017  .00005236  00000-0  34672-3 0  9991,2 51776  53.2155 231.6079 0001722  90.6964 269.4225 15.08848542 94506,6917.854,95.437,540.911,538.528,0.0
51776.0,STARLINK-3608,PAYLOAD,2023-11-03 12:16:01,15.08845578,0.0001852,53.2167,227.1457,89.2908,270.8296,0.001244,0.00019569,0.0,0 STARLINK-3608,1 51776U 22017J   23307.51112364  .00019569  00000-0  12440-2 0  9999,2 51776  53.2167 227.1457 0001852  89.2908 270.8296 15.08845578 93166,6917.863,95.437,541.01,538.447,0.0
51776.0,STARLINK-3608,PAYLOAD,2023-11-03 18:37:33,15.08854711,0.0002419,53.216,225.9564,88.1857,271.9412,0.0018062,0.00028587,0.0,0 STARLINK-3608,1 51776U 22017J   23307.77608529  .00028587  00000-0  18062-2 0  9996,2 51776  53.2160 225.9564 0002419  88.1857 271.9412 15.08854711 94695,6917.835,95.437,541.374,538.027,0.0
51776.0,STARLINK-3608,PAYLOAD,2023-11-04 04:09:52,15.0885174,0.0001676,53.2166,224.1707,101.1641,258.954,0.00091019,0.00014232,0.0,0 STARLINK-3608,1 51776U 22017J   23308.17352241  .00014232  00000-0  91019-3 0  9994,2 51776  53.2166 224.1707 0001676 101.1641 258.9540 15.08851740 94755,6917.845,95.437,540.869,538.55,0.0
51776.0,STARLINK-3608,PAYLOAD,2023-11-04 12:06:48,15.08837035,0.0001678,53.2169,222.6852,91.158,268.9605,0.00052906,8.141e-05,0.0,0 STARLINK-3608,1 51776U 22017J   23308.50472807  .00008141  00000-0  52906-3 0  9996,2 51776  53.2169 222.6852 0001678  91.1580 268.9605 15.08837035 93319,6917.889,95.438,540.915,538.594,0.0
51776.0,STARLINK-3608,PAYLOAD,2023-11-04 21:39:06,15.08859947,0.0001209,53.2161,220.9006,100.7581,259.3547,0.0013502,0.00021277,0.0,0 STARLINK-3608,1 51776U 22017J   23308.90216399  .00021277  00000-0  13502-2 0  9995,2 51776  53.2161 220.9006 0001209 100.7581 259.3547 15.08859947 93372,6917.819,95.436,540.521,538.848,0.0
51776.0,STARLINK-3608,PAYLOAD,2023-11-05 04:00:39,15.08877475,0.0001369,53.2163,219.7115,95.2848,264.8301,0.002444,0.00038863,0.0,0 STARLINK-3608,1 51776U 22017J   23309.16712055  .00038863  00000-0  24440-2 0  9996,2 51776  53.2163 219.7115 0001369  95.2848 264.8301 15.08877475 94907,6917.766,95.435,540.578,538.684,0.0
51776.0,STARLINK-3608,PAYLOAD,2023-11-05 21:29:52,15.08911011,0.0001216,53.2168,216.4401,93.317,266.7961,0.0037513,0.00060039,0.0,0 STARLINK-3608,1 51776U 22017J   23309.89574917  .00060039  00000-0  37513-2 0  9994,2 51776  53.2168 216.4401 0001216  93.3170 266.7961 15.08911011 93527,6917.663,95.433,540.37,538.687,0.0
51776.0,STARLINK-3608,PAYLOAD,2023-11-06 03:51:23,15.08949693,0.0001179,53.2168,215.2508,78.716,281.3964,0.0047305,0.00076039,0.0,0 STARLINK-3608,1 51776U 22017J   23310.16069436  .00076039  00000-0  47305-2 0  9998,2 51776  53.2168 215.2508 0001179  78.7160 281.3964 15.08949693 95059,6917.545,95.431,540.226,538.595,0.0
51776.0,STARLINK-3608,PAYLOAD,2023-11-06 21:20:39,15.08841875,0.0001181,53.2167,211.9795,130.8871,229.2224,0.0014346,0.00022619,0.0,0 STARLINK-3608,1 51776U 22017J   23310.88934598  .00022619  00000-0  14346-2 0  9991,2 51776  53.2167 211.9795 0001181 130.8871 229.2224 15.08841875 93670,6917.875,95.437,540.557,538.923,0.0
51776.0,STARLINK-3608,PAYLOAD,2023-11-07 00:31:26,15.08741214,0.0001507,53.2164,211.3845,119.0007,241.1137,0.0024058,0.00038104,0.0,0 STARLINK-3608,1 51776U 22017J   23311.02183688  .00038104  00000-0  24058-2 0  9991,2 51776  53.2164 211.3845 0001507 119.0007 241.1137 15.08741214 95189,6918.182,95.444,541.09,539.005,0.0
51776.0,STARLINK-3608,PAYLOAD,2023-11-07 10:03:47,15.0877855,0.0001458,53.2167,209.6025,115.9974,244.1168,0.0028615,0.0004547,0.0,0 STARLINK-3608,1 51776U 22017J   23311.41929743  .00045470  00000-0  28615-2 0  9991,2 51776  53.2167 209.6025 0001458 115.9974 244.1168 15.08778550 93756,6918.068,95.441,540.942,538.925,0.0
51776.0,STARLINK-3608,PAYLOAD,2023-11-08 01:57:39,15.08831602,0.000128,53.2163,206.628,109.1728,250.9403,0.0023357,0.00037072,0.0,0 STARLINK-3608,1 51776U 22017J   23312.08171082  .00037072  00000-0  23357-2 0  9997,2 51776  53.2163 206.6280 0001280 109.1728 250.9403 15.08831602 95349,6917.906,95.438,540.657,538.886,0.0
51776.0,STARLINK-3608,PAYLOAD,2023-11-08 22:37:39,15.08920397,0.000122,53.2168,202.769,80.2714,279.8416,0.0042291,0.00067815,0.0,0 STARLINK-3608,1 51776U 22017J   23312.94281941  .00067815  00000-0  42291-2 0  9994,2 51776  53.2168 202.7690 0001220  80.2714 279.8416 15.08920397 93986,6917.635,95.432,540.344,538.656,0.0
51776.0,STARLINK-3608,PAYLOAD,2023-11-09 01:48:25,15.08903176,0.00013,53.2164,202.175,83.5725,276.5415,0.0023318,0.00037082,0.0,0 STARLINK-3608,1 51776U 22017J   23313.07529688  .00037082  00000-0  23318-2 0  9994,2 51776  53.2164 202.1750 0001300  83.5725 276.5415 15.08903176 95497,6917.687,95.434,540.452,538.653,0.0
51776.0,STARLINK-3608,PAYLOAD,2023-11-09 22:28:25,15.08855355,0.000125,53.2152,198.3004,131.7828,228.3271,0.0011234,0.00017644,0.0,0 STARLINK-3608,1 51776U 22017J   23313.93640859  .00017644  00000-0  11234-2 0  9999,2 51776  53.2152 198.3004 0001250 131.7828 228.3271 15.08855355 94136,6917.833,95.437,540.563,538.834,0.0
51776.0,STARLINK-3608,PAYLOAD,2023-11-10 01:39:12,15.08848687,0.0001131,53.2155,197.7067,97.3183,262.7937,0.0012244,0.00019257,0.0,0 STARLINK-3608,1 51776U 22017J   23314.06888939  .00019257  00000-0  12244-2 0  9991,2 51776  53.2155 197.7067 0001131  97.3183 262.7937 15.08848687 95648,6917.854,95.437,540.501,538.936,0.0
51776.0,STARLINK-3608,PAYLOAD,2023-11-10 09:36:08,15.08822799,0.0001283,53.2156,196.2209,98.5092,261.6046,0.0016975,0.00026818,0.0,0 STARLINK-3608,1 51776U 22017J   23314.40009270  .00026818  00000-0  16975-2 0  9998,2 51776  53.2156 196.2209 0001283  98.5092 261.6046 15.08822799 95691,6917.933,95.439,540.686,538.91,0.0
51776.0,STARLINK-3608,PAYLOAD,2023-11-10 22:19:13,15.0884921,0.0001338,53.2156,193.8424,89.7033,270.4113,0.001267,0.00019939,0.0,0 STARLINK-3608,1 51776U 22017J   23314.93001382  .00019939  00000-0  12670-2 0  9996,2 51776  53.2156 193.8424 0001338  89.7033 270.4113 15.08849210 94285,6917.852,95.437,540.643,538.792,0.0
51776.0,STARLINK-3608,PAYLOAD,2023-11-11 09:26:55,15.08843005,0.0001445,53.2163,191.7601,87.1449,272.9708,0.0006831,0.00010601,0.0,0 STARLINK-3608,1 51776U 22017J   23315.39369501  .00010601  00000-0  68310-3 0  9997,2 51776  53.2163 191.7601 0001445  87.1449 272.9708 15.08843005 95845,6917.871,95.437,540.736,538.737,0.0
51776.0,STARLINK-3608,PAYLOAD,2023-11-11 22:10:00,15.08841062,0.000158,53.2165,189.3806,90.1624,269.955,0.00032576,4.9e-05,0.0,0 STARLINK-3608,1 51776U 22017J   23315.92361622  .00004900  00000-0  32576-3 0  9992,2 51776  53.2165 189.3806 0001580  90.1624 269.9550 15.08841062 94432,6917.877,95.437,540.835,538.649,0.0
51776.0,STARLINK-3608,PAYLOAD,2023-11-12 09:17:42,15.08843571,0.000156,53.2161,187.2992,88.8224,271.2947,0.00032682,4.918e-05,0.0,0 STARLINK-3608,1 51776U 22017J   23316.38729636  .00004918  00000-0  32682-3 0  9993,2 51776  53.2161 187.2992 0001560  88.8224 271.2947 15.08843571 94500,6917.869,95.437,540.814,538.655,0.0
